0 METEOR 2-8 DEB
1 36319U 82025D   13288.17922582  .00001345  00000-0  79747-3 0  1405
2 36319 082.5304 084.4908 0030875 325.0296 032.7860 14.06732222540373
0 METEOR 2-8 DEB
1 36319U 82025D   13295.15008774  .00001436  00000-0  85184-3 0  1413
2 36319 082.5342 078.7317 0030904 303.8342 056.0783 14.06754322541351
